SatCatId,ObjectName,LaunchYear,OrbitalPeriod,LaunchMass,StatusCode,Inclination,Status,UcsData,OrbitClassEstimated,LaunchSiteCountry,Owner,UseType,Purpose,LaunchVehicleClass,TLE1,TLE2,MeanMotion,Eccentricity,OrbitClass
48572,STARLINK-2222,2021,95.59,260.0,+,53.05,Active,1,LEO,USA,USA,Commercial,Communications,Falcon,1 48572U 21041V   23209.22703383  .00020429  00000+0  13880-2 0  9996,2 48572  53.0533 110.8605 0001421  68.2846 291.8294 15.06356517121053,15.06356517,0.0001421,LEO
48573,STARLINK-2224,2021,95.59,260.0,+,53.05,Active,1,LEO,USA,USA,Commercial,Communications,Falcon,1 48573U 21041W   23209.00679498  .00021546  00000+0  14624-2 0  9990,2 48573  53.0537 101.8438 0001353 118.5691 241.5434 15.06362381121158,15.06362381,0.0001353,LEO
48574,STARLINK-2225,2021,95.59,260.0,+,53.05,Active,1,LEO,USA,USA,Commercial,Communications,Falcon,1 48574U 21041X   23209.04276997  .00004471  00000+0  31893-3 0  9998,2 48574  53.0548  71.7680 0001143  83.5491 276.5628 15.06389951121583,15.06389951,0.0001143,LEO
48575,STARLINK-2227,2021,95.59,260.0,+,53.05,Active,1,LEO,USA,USA,Commercial,Communications,Falcon,1 48575U 21041Y   23209.65557779  .00018463  00000+0  12554-2 0  9994,2 48575  53.0536  59.2530 0000791  50.7780 309.3279 15.06391364122276,15.06391364,7.91e-05,LEO
48576,STARLINK-2228,2021,95.59,260.0,+,53.05,Active,1,LEO,USA,USA,Commercial,Communications,Falcon,1 48576U 21041Z   23209.05886607  .00022569  00000+0  15307-2 0  9995,2 48576  53.0544  76.6101 0001341  69.6164 290.4969 15.06363272121520,15.06363272,0.0001341,LEO
48577,STARLINK-2231,2021,95.59,260.0,+,53.05,Active,1,LEO,USA,USA,Commercial,Communications,Falcon,1 48577U 21041AA  23209.06577572  .00021191  00000+0  14384-2 0  9999,2 48577  53.0537 101.5790 0001214 104.6087 255.5036 15.06369873121168,15.06369873,0.0001214,LEO
48578,STARLINK-2232,2021,95.59,260.0,+,53.05,Active,1,LEO,USA,USA,Commercial,Communications,Falcon,1 48578U 21041AB  23209.22802243  .00010937  00000+0  75250-3 0  9990,2 48578  53.0530 101.3642 0000783 105.0315 255.0761 15.06373203121189,15.06373203,7.83e-05,LEO
48579,STARLINK-2233,2021,95.59,260.0,+,53.05,Active,1,LEO,USA,USA,Commercial,Communications,Falcon,1 48579U 21041AC  23209.05472597  .00019633  00000+0  13342-2 0  9992,2 48579  53.0545 101.6308 0001224  78.9592 281.1534 15.06373079121161,15.06373079,0.0001224,LEO
48580,STARLINK-2234,2021,95.59,260.0,+,53.05,Active,1,LEO,USA,USA,Commercial,Communications,Falcon,1 48580U 21041AD  23209.75088379  .00018943  00000+0  12876-2 0  9996,2 48580  53.0537  73.5067 0000949  79.8927 280.2169 15.06387927122070,15.06387927,9.49e-05,LEO
48581,STARLINK-2235,2021,95.59,260.0,+,53.05,Active,1,LEO,USA,USA,Commercial,Communications,Falcon,1 48581U 21041AE  23209.04872980  .00020719  00000+0  14071-2 0  9991,2 48581  53.0540  66.6694 0001155  68.4357 291.6755 15.06363797121665,15.06363797,0.0001155,LEO
48582,STARLINK-2236,2021,95.59,260.0,+,53.05,Active,1,LEO,USA,USA,Commercial,Communications,Falcon,1 48582U 21041AF  23209.69379500  .00008863  00000+0  61348-3 0  9999,2 48582  53.0541  63.9200 0001118 119.0624 241.0477 15.06380041122199,15.06380041,0.0001118,LEO
48583,STARLINK-2237,2021,95.59,260.0,+,53.05,Active,1,LEO,USA,USA,Commercial,Communications,Falcon,1 48583U 21041AG  23209.49979968  .00019416  00000+0  13200-2 0  9991,2 48583  53.0531 109.6334 0001012  78.6837 281.4266 15.06365661121097,15.06365661,0.0001012,LEO
48584,STARLINK-2238,2021,95.59,260.0,+,53.05,Active,1,LEO,USA,USA,Commercial,Communications,Falcon,1 48584U 21041AH  23209.20860381  .00022997  00000+0  15595-2 0  9996,2 48584  53.0534 110.9377 0001037  70.1845 289.9255 15.06358053121049,15.06358053,0.0001037,LEO
48585,STARLINK-2240,2021,95.59,260.0,+,53.05,Active,1,LEO,USA,USA,Commercial,Communications,Falcon,1 48585U 21041AJ  23209.55138774 -.00000426  00000+0 -97599-5 0  9991,2 48585  53.0540 109.4015 0000790 110.2898 249.8176 15.06389832121099,15.06389832,7.9e-05,LEO
48586,STARLINK-2241,2021,95.59,260.0,+,53.05,Active,1,LEO,USA,USA,Commercial,Communications,Falcon,1 48586U 21041AK  23209.14594265  .00021618  00000+0  14675-2 0  9993,2 48586  53.0539 111.2189 0001116  67.5125 292.5982 15.06355771121434,15.06355771,0.0001116,LEO
48587,STARLINK-2242,2021,95.59,260.0,+,53.05,Active,1,LEO,USA,USA,Commercial,Communications,Falcon,1 48587U 21041AL  23209.14961971  .00000988  00000+0  85212-4 0  9990,2 48587  53.0538 111.2054 0001048  94.7564 265.3545 15.06388239121032,15.06388239,0.0001048,LEO
48588,STARLINK-2244,2021,95.59,260.0,+,53.05,Active,1,LEO,USA,USA,Commercial,Communications,Falcon,1 48588U 21041AM  23209.32748106  .00016556  00000+0  11285-2 0  9999,2 48588  53.0546 100.4090 0001209 118.1995 241.9116 15.06375440121203,15.0637544,0.0001209,LEO
48589,STARLINK-2245,2021,95.59,260.0,+,53.05,Active,1,LEO,USA,USA,Commercial,Communications,Falcon,1 48589U 21041AN  23209.19109781  .00019728  00000+0  13407-2 0  9997,2 48589  53.0540 101.0186 0001809 103.7502 256.3689 15.06369813121180,15.06369813,0.0001809,LEO
48591,STARLINK-2248,2021,95.59,260.0,+,53.05,Active,1,LEO,USA,USA,Commercial,Communications,Falcon,1 48591U 21041AQ  23209.10906227  .00026543  00000+0  17961-2 0  9993,2 48591  53.0537 101.3874 0001098  63.5128 296.5973 15.06359064122071,15.06359064,0.0001098,LEO
48592,STARLINK-2249,2021,95.59,260.0,+,53.05,Active,1,LEO,USA,USA,Commercial,Communications,Falcon,1 48592U 21041AR  23209.25189554  .00001449  00000+0  11620-3 0  9991,2 48592  53.0537 110.7774 0000727 127.6508 232.4546 15.06373628121051,15.06373628,7.27e-05,LEO
48593,STARLINK-2250,2021,95.59,260.0,+,53.05,Active,1,LEO,USA,USA,Commercial,Communications,Falcon,1 48593U 21041AS  23209.25652535  .00015764  00000+0  10759-2 0  9992,2 48593  53.0531 110.7272 0001034  84.4049 275.7058 15.06362710121059,15.0636271,0.0001034,LEO
48594,STARLINK-2251,2021,95.59,260.0,+,53.05,Active,1,LEO,USA,USA,Commercial,Communications,Falcon,1 48594U 21041AT  23209.08606026  .00022290  00000+0  15120-2 0  9997,2 48594  53.0543  81.5758 0001341  61.7820 298.3305 15.06364831121459,15.06364831,0.0001341,LEO
48595,STARLINK-2252,2021,95.59,260.0,+,53.05,Active,1,LEO,USA,USA,Commercial,Communications,Falcon,1 48595U 21041AU  23209.23809354  .00003009  00000+0  22097-3 0  9993,2 48595  53.0533 110.8064 0001176 114.6684 245.4427 15.06377212122329,15.06377212,0.0001176,LEO
48596,STARLINK-2253,2021,95.59,260.0,+,53.05,Active,1,LEO,USA,USA,Commercial,Communications,Falcon,1 48596U 21041AV  23209.12750927 -.00005327  00000+0 -33918-3 0  9994,2 48596  53.0540 111.3044 0000557 114.8022 245.3025 15.06379842121493,15.06379842,5.57e-05,LEO
48597,STARLINK-2255,2021,95.59,260.0,+,53.05,Active,1,LEO,USA,USA,Commercial,Communications,Falcon,1 48597U 21041AW  23209.00218889  .00016840  00000+0  11480-2 0  9997,2 48597  53.0528 111.8678 0000991  70.9314 289.1782 15.06357693122280,15.06357693,9.91e-05,LEO
48598,STARLINK-2256,2021,95.6,260.0,+,53.05,Active,1,LEO,USA,USA,Commercial,Communications,Falcon,1 48598U 21041AX  23209.00587308  .00023996  00000+0  16266-2 0  9990,2 48598  53.0532 111.8494 0001276  80.7383 279.3750 15.06349357121478,15.06349357,0.0001276,LEO
48599,STARLINK-2274,2021,95.59,260.0,+,53.05,Active,1,LEO,USA,USA,Commercial,Communications,Falcon,1 48599U 21041AY  23209.43022987  .00017598  00000+0  11983-2 0  9997,2 48599  53.0540  84.9443 0001075  78.4233 281.6876 15.06370077122702,15.06370077,0.0001075,LEO
48600,STARLINK-2275,2021,95.59,260.0,+,53.05,Active,1,LEO,USA,USA,Commercial,Communications,Falcon,1 48600U 21041AZ  23209.13581190  .00021366  00000+0  14504-2 0  9993,2 48600  53.0538 101.2640 0001582  77.4644 282.6521 15.06362883122447,15.06362883,0.0001582,LEO
48602,STARLINK-2713,2021,95.59,260.0,+,53.05,Active,1,LEO,USA,USA,Commercial,Communications,Falcon,1 48602U 21041BB  23209.06531782  .00024144  00000+0  16359-2 0  9996,2 48602  53.0537  86.5807 0001289  64.4389 295.6733 15.06361316122645,15.06361316,0.0001289,LEO
48603,STARLINK-2714,2021,95.59,260.0,+,53.05,Active,1,LEO,USA,USA,Commercial,Communications,Falcon,1 48603U 21041BC  23209.11091198  .00022855  00000+0  15498-2 0  9995,2 48603  53.0532  81.3802 0001204  57.7609 302.3497 15.06362809122726,15.06362809,0.0001204,LEO
48604,STARLINK-2757,2021,95.59,260.0,+,53.05,Active,1,LEO,USA,USA,Commercial,Communications,Falcon,1 48604U 21041BD  23209.24546276  .00021651  00000+0  14696-2 0  9994,2 48604  53.0536 110.7778 0000946  89.4419 270.6678 15.06358713122326,15.06358713,9.46e-05,LEO
48605,CAPELLA-6-WHITNEY,2021,95.08,100.0,+,53.03,Active,1,LEO,USA,USA,Commercial,Earth Observation,Falcon,1 48605U 21041BE  23209.20257501  .00033858  00000+0  18252-2 0  9995,2 48605  53.0263 138.3849 0010138 177.8771 182.2266 15.14462527120626,15.14462527,0.0010138,LEO
48606,TYVAK-0130,2021,95.84,9.0,+,53.03,Active,1,LEO,USA,USA,Commercial,Technology Development,Falcon,1 48606U 21041BF  23209.71157328  .00005267  00000+0  41224-3 0  9997,2 48606  53.0301 148.1553 0013404 173.8713 186.2440 15.02472563120527,15.02472563,0.0013404,LEO
48618,SBIRS GEO-5 (USA 315),2021,1436.08,4850.0,+,6.68,Active,1,GSO,USA,USA,Military,Earth Observation,Atlas,1 48618U 21042A   23208.02608260  .00000137  00000+0  00000+0 0  9994,2 48618   6.6755 325.4879 0001891 160.8248 208.4329  1.00272666  8178,1.00272666,0.0001891,GSO
48621,HAIYANG-2D,2021,104.09,-1.0,+,66.0,Active,0,LEO,PRC,China,Unknown,Unknown,Unknown,1 48621U 21043A   23209.72834118 -.00000030  00000+0  46485-4 0  9995,2 48621  65.9976  49.9377 0007648 262.6013  97.4186 13.83372497110733,13.83372497,0.0007648,LEO
48638,STARLINK-2758,2021,95.59,260.0,+,53.05,Active,1,LEO,USA,USA,Commercial,Communications,Falcon,1 48638U 21044A   23209.06437264  .00024472  00000+0  16577-2 0  9994,2 48638  53.0541  86.5882 0001204  69.9238 290.1881 15.06363839119745,15.06363839,0.0001204,LEO
